CORVUS BC4              
1 43767U 18099K   26188.36542257  .00002569  00000+0  15050-3 0  9998
2 43767  97.4056 230.7555 0006530 295.3186  64.7368 15.12661802415450
M2 PATHFINDER           
1 45727U 20037E   26188.46211780  .00001835  00000+0  13446-3 0  9998
2 45727  97.8158  19.9225 0013267  85.9111 274.3631 15.04773632328543
NETSAT-4                
1 46504U 20068U   26187.95385057  .00013695  00000+0  29679-3 0  9990
2 46504  97.8607 197.7918 0003785 228.6166 131.4756 15.44556008318821
NETSAT-3                
1 46505U 20068V   26188.49377397  .00013134  00000+0  29586-3 0  9994
2 46505  97.8658 196.5669 0003106 248.2229 111.8687 15.43417698318817
NETSAT-1                
1 46506U 20068W   26188.73661694  .00008031  00000+0  23816-3 0  9998
2 46506  97.8754 190.9148 0002585 308.9529  51.1482 15.35127553318450
NETSAT-2                
1 46507U 20068X   26188.48287994  .00015625  00000+0  31213-3 0  9995
2 46507  97.8623 198.3349 0001431 255.2599 104.8491 15.46919793318870
GREENCUBE (IO-117)      
1 53109U 22080E   26188.26139696 -.00000003  00000+0  00000+0 0  9999
2 53109  70.1426 291.2647 0008968 285.4121  74.5548  6.42583238 93359
SITRO-AIS 5 (KATYS)     
1 57176U 23091L   26188.74106611  .00007994  00000+0  27786-3 0  9993
2 57176  97.5048 252.8411 0011461  38.1287 322.0761 15.29949405167481
SITRO-AIS 6 (CHIRKIN)   
1 57192U 23091AC  26188.76794029  .00006439  00000+0  25024-3 0  9995
2 57192  97.5055 251.8769 0011942  41.6097 318.6047 15.26343637167428
SITRO-AIS 8 (ANOKHIN)   
1 57193U 23091AD  26188.78689174  .00009548  00000+0  30416-3 0  9997
2 57193  97.5044 254.5612 0010287  34.0097 326.1802 15.32722638167603
SITRO-AIS 7 (FARTUSHNIY)
1 57194U 23091AE  26188.77535711  .00006551  00000+0  25702-3 0  9997
2 57194  97.5052 251.6986 0011883  42.7287 317.4873 15.26021548167410
SITRO-AIS 10 (BURDAEV)  
1 57199U 23091AK  26188.73038441  .00013949  00000+0  35804-3 0  9999
2 57199  97.5068 259.7738 0005558  11.6382 348.4991 15.39426891167924
SITRO-AIS 9 (SHCHUKIN)  
1 57201U 23091AM  26188.76344148  .00013050  00000+0  34074-3 0  9991
2 57201  97.5066 259.5210 0005854  11.5215 348.6162 15.38917580167912
SITRO-AIS 12 (SMIRENNIY)
1 57204U 23091AQ  26188.75014691  .00013296  00000+0  34385-3 0  9997
2 57204  97.5079 259.9876 0005359   5.3212 354.8090 15.39210414167933
SITRO-AIS 11 (SHEFFER)  
1 57208U 23091AU  26188.75780093  .00013847  00000+0  35288-3 0  9992
2 57208  97.5077 260.2551 0005261   4.9754 355.1542 15.39651444167958
SITRO-AIS 25            
1 59066U 24039R   26188.87730265  .00001374  00000+0  10951-3 0  9990
2 59066  95.3897 249.3107 0142372 255.4485 103.0913 14.93617615127816
SITRO-AIS 26            
1 59067U 24039S   26188.88151826  .00001256  00000+0  10079-3 0  9992
2 59067  95.3897 249.2070 0142731 256.0436 102.4882 14.93409371127802
SITRO-AIS 27            
1 59068U 24039T   26188.84594885  .00002470  00000+0  19373-3 0  9990
2 59068  95.3899 249.4637 0141730 254.6810 103.8715 14.93832751127828
SITRO-AIS 28            
1 59071U 24039U   26188.88990709  .00001614  00000+0  12747-3 0  9990
2 59071  95.3899 249.5425 0141718 254.3915 104.1632 14.93865586127832
GRBBETA                 
1 60237U 24128C   26188.46154758  .00002460  00000+0  17646-3 0  9998
2 60237  61.9890 145.1259 0037997 138.9442 221.4522 15.06772780109322
OOV-CUBE (TUBSAT-30)    
1 60240U 24128F   26187.41788603  .00002062  00000+0  16592-3 0  9995
2 60240  61.9939 158.5121 0042205 138.0070 222.4270 15.02848993109004
ROBUSTA-3A (MEDITERRAN*)
1 60243U 24128J   26188.37453157  .00004972  00000+0  29666-3 0  9995
2 60243  61.9856 136.8423 0038883 132.1641 228.2768 15.11910592109477
LASARSAT                
1 62391U 24247Q   26188.25250597  .00026614  00000+0  50876-3 0  9997
2 62391  44.9725 149.3564 0006511 108.5559 251.6039 15.47649920 86425
CROCUBE                 
1 62394U 24247T   26186.35536948  .00062671  00000+0  11046-2 0  9994
2 62394  44.9708 157.0633 0006223  99.0627 261.0968 15.49608608 86169
FORESAIL-1 PRIME        
1 66778U 25276DS  26188.74997538  .00003663  00000+0  17882-3 0  9999
2 66778  97.4189 261.6460 0003396  60.7942 299.3632 15.18895073 33522
KNACKSAT-2              
1 67683U 98067XZ  26187.43025761  .00050889  00000+0  57855-3 0  9994
2 67683  51.6265 197.5608 0008259 296.8985  63.1164 15.61755488 23280
