OBJECT_NAME,OBJECT_ID,EPOCH,MEAN_MOTION,ECCENTRICITY,INCLINATION,RA_OF_ASC_NODE,ARG_OF_PERICENTER,MEAN_ANOMALY,EPHEMERIS_TYPE,CLASSIFICATION_TYPE,NORAD_CAT_ID,ELEMENT_SET_NO,REV_AT_EPOCH,BSTAR,MEAN_MOTION_DOT,MEAN_MOTION_DDOT
CORVUS BC4,2018-099K,2026-07-07T08:46:12.510048,15.12661802,.00065305,97.4056,230.7555,295.3186,64.7368,0,U,43767,999,41545,.15049837E-3,.2569E-4,0
M2 PATHFINDER,2020-037E,2026-07-07T11:05:26.977920,15.04773632,.00132671,97.8158,19.9225,85.9111,274.3631,0,U,45727,999,32854,.13445734E-3,.1835E-4,0
NETSAT-4,2020-068U,2026-07-06T22:53:32.689248,15.44556008,.00037857,97.8607,197.7918,228.6166,131.4756,0,U,46504,999,31882,.29678825E-3,.13695E-3,0
NETSAT-3,2020-068V,2026-07-07T11:51:02.071008,15.43417698,.00031065,97.8658,196.5669,248.2229,111.8687,0,U,46505,999,31881,.2958585E-3,.13134E-3,0
NETSAT-1,2020-068W,2026-07-07T17:40:43.703616,15.35127553,.0002585,97.8754,190.9148,308.9529,51.1482,0,U,46506,999,31845,.23816E-3,.8031E-4,0
NETSAT-2,2020-068X,2026-07-07T11:35:20.826816,15.46919793,.00014311,97.8623,198.3349,255.2599,104.8491,0,U,46507,999,31887,.3121288E-3,.15625E-3,0
GREENCUBE (IO-117),2022-080E,2026-07-07T06:16:24.697344,6.42583238,.00089686,70.1426,291.2647,285.4121,74.5548,0,U,53109,999,9335,0,-.3E-7,0
SITRO-AIS 5 (KATYS),2023-091L,2026-07-07T17:47:08.111904,15.29949405,.0011461,97.5048,252.8411,38.1287,322.0761,0,U,57176,999,16748,.27786E-3,.7994E-4,0
SITRO-AIS 6 (CHIRKIN),2023-091AC,2026-07-07T18:25:50.041056,15.26343637,.0011942,97.5055,251.8769,41.6097,318.6047,0,U,57192,999,16742,.25024E-3,.6439E-4,0
SITRO-AIS 8 (ANOKHIN),2023-091AD,2026-07-07T18:53:07.446336,15.32722638,.0010287,97.5044,254.5612,34.0097,326.1802,0,U,57193,999,16760,.30416E-3,.9548E-4,0
SITRO-AIS 7 (FARTUSHNIY),2023-091AE,2026-07-07T18:36:30.854304,15.26021548,.0011883,97.5052,251.6986,42.7287,317.4873,0,U,57194,999,16741,.25702E-3,.6551E-4,0
SITRO-AIS 10 (BURDAEV),2023-091AK,2026-07-07T17:31:45.213024,15.39426891,.0005558,97.5068,259.7738,11.6382,348.4991,0,U,57199,999,16792,.35804E-3,.13949E-3,0
SITRO-AIS 9 (SHCHUKIN),2023-091AM,2026-07-07T18:19:21.343872,15.38917580,.0005854,97.5066,259.5210,11.5215,348.6162,0,U,57201,999,16791,.34074E-3,.1305E-3,0
SITRO-AIS 12 (SMIRENNIY),2023-091AQ,2026-07-07T18:00:12.693024,15.39210414,.0005359,97.5079,259.9876,5.3212,354.8090,0,U,57204,999,16793,.34385E-3,.13296E-3,0
SITRO-AIS 11 (SHEFFER),2023-091AU,2026-07-07T18:11:14.000352,15.39651444,.0005261,97.5077,260.2551,4.9754,355.1542,0,U,57208,999,16795,.35288E-3,.13847E-3,0
SITRO-AIS 25,2024-039R,2026-07-07T21:03:18.948960,14.93617615,.0142372,95.3897,249.3107,255.4485,103.0913,0,U,59066,999,12781,.10951E-3,.1374E-4,0
SITRO-AIS 26,2024-039S,2026-07-07T21:09:23.177664,14.93409371,.0142731,95.3897,249.2070,256.0436,102.4882,0,U,59067,999,12780,.10079E-3,.1256E-4,0
SITRO-AIS 27,2024-039T,2026-07-07T20:18:09.980640,14.93832751,.014173,95.3899,249.4637,254.6810,103.8715,0,U,59068,999,12782,.19373E-3,.247E-4,0
SITRO-AIS 28,2024-039U,2026-07-07T21:21:27.972576,14.93865586,.0141718,95.3899,249.5425,254.3915,104.1632,0,U,59071,999,12783,.12747E-3,.1614E-4,0
GRBBETA,2024-128C,2026-07-07T11:04:37.710912,15.06772780,.00379974,61.9890,145.1259,138.9442,221.4522,0,U,60237,999,10932,.17646117E-3,.246E-4,0
OOV-CUBE (TUBSAT-30),2024-128F,2026-07-06T10:01:45.352992,15.02848993,.00422051,61.9939,158.5121,138.0070,222.4270,0,U,60240,999,10900,.16592493E-3,.2062E-4,0
ROBUSTA-3A (MEDITERRANEE),2024-128J,2026-07-07T08:59:19.527648,15.11910592,.00388837,61.9856,136.8423,132.1641,228.2768,0,U,60243,999,10947,.29666161E-3,.4972E-4,0
LASARSAT,2024-247Q,2026-07-07T06:03:36.515808,15.47649920,.00065119,44.9725,149.3564,108.5559,251.6039,0,U,62391,999,8642,.50876345E-3,.26614E-3,0
CROCUBE,2024-247T,2026-07-05T08:31:43.923072,15.49608608,.0006223,44.9708,157.0633,99.0627,261.0968,0,U,62394,999,8616,.11046E-2,.62671E-3,0
FORESAIL-1 PRIME,2025-276DS,2026-07-07T17:59:57.872832,15.18895073,.0003396,97.4189,261.6460,60.7942,299.3632,0,U,66778,999,3352,.17882E-3,.3663E-4,0
KNACKSAT-2,1998-067XZ,2026-07-06T10:19:34.257504,15.61755488,.00082597,51.6265,197.5608,296.8985,63.1164,0,U,67683,999,2328,.57854596E-3,.50889E-3,0
